NAVSTAR 77 (USA 289)    
1 43873U 18109A   24146.28090654  .00000053  00000+0  00000+0 0  9991
2 43873  55.2892 121.9332 0028908 195.7893 254.7518  2.00554918 39972
